{
  "type": "FeatureCollection",
  "features": [
    {
      "type": "Feature",
      "properties": {
        "norad_id": 38212,
        "name": "COSMOS 2251 DEB",
        "group": "cosmos-2251-debris",
        "lat": 50.589770647196396,
        "lon": 75.15531605382888,
        "alt_km": 603.8140360868529,
        "timestamp": "2025-12-23T20:42:37.474121+00:00",
        "meta_object_name": "COSMOS 2251 DEB",
        "meta_object_id": "1993-036BTC",
        "meta_epoch": "2025-12-19T04:21:29.490912",
        "meta_mean_motion": 14.77722254,
        "meta_eccentricity": 0.0092064,
        "meta_inclination": 74.0528,
        "meta_ra_of_asc_node": 63.9673,
        "meta_arg_of_pericenter": 129.0689,
        "meta_mean_anomaly": 231.8724,
        "meta_ephemeris_type": 0,
        "meta_classification_type": "U",
        "meta_norad_cat_id": 38212,
        "meta_element_set_no": 999,
        "meta_rev_at_epoch": 81405,
        "meta_bstar": 0.00027193732,
        "meta_mean_motion_dot": 2.056e-05,
        "meta_mean_motion_ddot": 0,
        "tle_line1": "1 38212U 93036BTC 25353.18159133  .00002056  00000+0  27194-3 0  9994",
        "tle_line2": "2 38212  74.0528  63.9673 0092064 129.0689 231.8724 14.77722254814050"
      },
      "geometry": {
        "type": "Point",
        "coordinates": [
          75.15531605382888,
          50.589770647196396
        ]
      }
    },
    {
      "type": "Feature",
      "properties": {
        "norad_id": 38220,
        "name": "COSMOS 2251 DEB",
        "group": "cosmos-2251-debris",
        "lat": 68.61172766597,
        "lon": 178.84791760709652,
        "alt_km": 579.7768515436974,
        "timestamp": "2025-12-23T20:42:37.474131+00:00",
        "meta_object_name": "COSMOS 2251 DEB",
        "meta_object_id": "1993-036BTL",
        "meta_epoch": "2025-12-22T10:29:04.431840",
        "meta_mean_motion": 14.93441795,
        "meta_eccentricity": 0.00057678,
        "meta_inclination": 74.0145,
        "meta_ra_of_asc_node": 48.7677,
        "meta_arg_of_pericenter": 19.2248,
        "meta_mean_anomaly": 340.9152,
        "meta_ephemeris_type": 0,
        "meta_classification_type": "U",
        "meta_norad_cat_id": 38220,
        "meta_element_set_no": 999,
        "meta_rev_at_epoch": 71515,
        "meta_bstar": 0.0032852202,
        "meta_mean_motion_dot": 0.00034688,
        "meta_mean_motion_ddot": 0,
        "tle_line1": "1 38220U 93036BTL 25356.43685685  .00034688  00000+0  32852-2 0  9992",
        "tle_line2": "2 38220  74.0145  48.7677 0005767  19.2248 340.9152 14.93441795715158"
      },
      "geometry": {
        "type": "Point",
        "coordinates": [
          178.84791760709652,
          68.61172766597
        ]
      }
    },
    {
      "type": "Feature",
      "properties": {
        "norad_id": 38479,
        "name": "COSMOS 2251 DEB",
        "group": "cosmos-2251-debris",
        "lat": -16.432232745114607,
        "lon": -11.403808279834807,
        "alt_km": 750.7504535856497,
        "timestamp": "2025-12-23T20:42:37.474141+00:00",
        "meta_object_name": "COSMOS 2251 DEB",
        "meta_object_id": "1993-036BTP",
        "meta_epoch": "2025-12-23T05:36:33.154848",
        "meta_mean_motion": 14.38410381,
        "meta_eccentricity": 0.00839559,
        "meta_inclination": 74.0057,
        "meta_ra_of_asc_node": 164.9051,
        "meta_arg_of_pericenter": 271.8436,
        "meta_mean_anomaly": 269.121,
        "meta_ephemeris_type": 0,
        "meta_classification_type": "U",
        "meta_norad_cat_id": 38479,
        "meta_element_set_no": 999,
        "meta_rev_at_epoch": 64838,
        "meta_bstar": 0.0020977765,
        "meta_mean_motion_dot": 6.644e-05,
        "meta_mean_motion_ddot": 0,
        "tle_line1": "1 38479U 93036BTP 25357.23371707  .00006644  00000+0  20978-2 0  9991",
        "tle_line2": "2 38479  74.0057 164.9051 0083955 271.8436 269.1210 14.38410381648386"
      },
      "geometry": {
        "type": "Point",
        "coordinates": [
          -11.403808279834807,
          -16.432232745114607
        ]
      }
    },
    {
      "type": "Feature",
      "properties": {
        "norad_id": 38481,
        "name": "COSMOS 2251 DEB",
        "group": "cosmos-2251-debris",
        "lat": 19.592906252556222,
        "lon": 162.44815314307593,
        "alt_km": 1011.6319427364178,
        "timestamp": "2025-12-23T20:42:37.474151+00:00",
        "meta_object_name": "COSMOS 2251 DEB",
        "meta_object_id": "1993-036BTR",
        "meta_epoch": "2025-12-17T17:37:11.726400",
        "meta_mean_motion": 13.94852214,
        "meta_eccentricity": 0.02348213,
        "meta_inclination": 73.9324,
        "meta_ra_of_asc_node": 358.9239,
        "meta_arg_of_pericenter": 298.2644,
        "meta_mean_anomaly": 59.4964,
        "meta_ephemeris_type": 0,
        "meta_classification_type": "U",
        "meta_norad_cat_id": 38481,
        "meta_element_set_no": 999,
        "meta_rev_at_epoch": 59130,
        "meta_bstar": 0.0012605173,
        "meta_mean_motion_dot": 2.103e-05,
        "meta_mean_motion_ddot": 0,
        "tle_line1": "1 38481U 93036BTR 25351.73416350  .00002103  00000+0  12605-2 0  9991",
        "tle_line2": "2 38481  73.9324 358.9239 0234821 298.2644  59.4964 13.94852214591302"
      },
      "geometry": {
        "type": "Point",
        "coordinates": [
          162.44815314307593,
          19.592906252556222
        ]
      }
    },
    {
      "type": "Feature",
      "properties": {
        "norad_id": 38483,
        "name": "COSMOS 2251 DEB",
        "group": "cosmos-2251-debris",
        "lat": -4.09299554128277,
        "lon": 173.00113118926586,
        "alt_km": 798.00724592204,
        "timestamp": "2025-12-23T20:42:37.474161+00:00",
        "meta_object_name": "COSMOS 2251 DEB",
        "meta_object_id": "1993-036BTT",
        "meta_epoch": "2025-12-12T08:16:48.530496",
        "meta_mean_motion": 14.28787654,
        "meta_eccentricity": 0.01107994,
        "meta_inclination": 74.262,
        "meta_ra_of_asc_node": 12.4521,
        "meta_arg_of_pericenter": 118.0167,
        "meta_mean_anomaly": 243.2246,
        "meta_ephemeris_type": 0,
        "meta_classification_type": "U",
        "meta_norad_cat_id": 38483,
        "meta_element_set_no": 999,
        "meta_rev_at_epoch": 63472,
        "meta_bstar": 0.0012977102,
        "meta_mean_motion_dot": 3.471e-05,
        "meta_mean_motion_ddot": 0,
        "tle_line1": "1 38483U 93036BTT 25346.34500614  .00003471  00000+0  12977-2 0  9992",
        "tle_line2": "2 38483  74.2620  12.4521 0110799 118.0167 243.2246 14.28787654634722"
      },
      "geometry": {
        "type": "Point",
        "coordinates": [
          173.00113118926586,
          -4.09299554128277
        ]
      }
    },
    {
      "type": "Feature",
      "properties": {
        "norad_id": 38486,
        "name": "COSMOS 2251 DEB",
        "group": "cosmos-2251-debris",
        "lat": 31.423645763486352,
        "lon": -7.083489583893839,
        "alt_km": 669.2543635182483,
        "timestamp": "2025-12-23T20:42:37.474178+00:00",
        "meta_object_name": "COSMOS 2251 DEB",
        "meta_object_id": "1993-036BTW",
        "meta_epoch": "2025-12-19T21:49:44.280192",
        "meta_mean_motion": 14.73429029,
        "meta_eccentricity": 0.0030516,
        "meta_inclination": 73.9403,
        "meta_ra_of_asc_node": 190.8021,
        "meta_arg_of_pericenter": 334.2314,
        "meta_mean_anomaly": 90.8371,
        "meta_ephemeris_type": 0,
        "meta_classification_type": "U",
        "meta_norad_cat_id": 38486,
        "meta_element_set_no": 999,
        "meta_rev_at_epoch": 75540,
        "meta_bstar": 0.0013432,
        "meta_mean_motion_dot": 8.756e-05,
        "meta_mean_motion_ddot": 0,
        "tle_line1": "1 38486U 93036BTW 25353.90954028  .00008756  00000+0  13432-2 0  9995",
        "tle_line2": "2 38486  73.9403 190.8021 0030516 334.2314  90.8371 14.73429029755403"
      },
      "geometry": {
        "type": "Point",
        "coordinates": [
          -7.083489583893839,
          31.423645763486352
        ]
      }
    },
    {
      "type": "Feature",
      "properties": {
        "norad_id": 38487,
        "name": "COSMOS 2251 DEB",
        "group": "cosmos-2251-debris",
        "lat": -70.09126225418962,
        "lon": -116.9696885880533,
        "alt_km": 515.4178047003543,
        "timestamp": "2025-12-23T20:42:37.474190+00:00",
        "meta_object_name": "COSMOS 2251 DEB",
        "meta_object_id": "1993-036BTX",
        "meta_epoch": "2025-12-21T18:32:44.643552",
        "meta_mean_motion": 15.1793295,
        "meta_eccentricity": 0.00206459,
        "meta_inclination": 73.9735,
        "meta_ra_of_asc_node": 14.8819,
        "meta_arg_of_pericenter": 185.3276,
        "meta_mean_anomaly": 174.7704,
        "meta_ephemeris_type": 0,
        "meta_classification_type": "U",
        "meta_norad_cat_id": 38487,
        "meta_element_set_no": 999,
        "meta_rev_at_epoch": 66937,
        "meta_bstar": 0.0019265154,
        "meta_mean_motion_dot": 0.00039496,
        "meta_mean_motion_ddot": 0,
        "tle_line1": "1 38487U 93036BTX 25355.77273893  .00039496  00000+0  19265-2 0  9992",
        "tle_line2": "2 38487  73.9735  14.8819 0020645 185.3276 174.7704 15.17932950669379"
      },
      "geometry": {
        "type": "Point",
        "coordinates": [
          -116.9696885880533,
          -70.09126225418962
        ]
      }
    }
  ]
}